CTC1_L_00572001-01
1 20418U 25014FC  26037.47809028  .00000000  00000+0  00000-0 0  9992
2 20418  87.0000   0.0000 0000000   0.0000   0.0000 13.96770382    19
CTC1_L_00572002-01
1 20419U 22679JP  26037.47809028  .00000000  00000+0  00000-0 0  9997
2 20419  87.0000   7.5000 0000000   0.0000  30.0000 13.96770382    15
CTC1_L_00572003-01
1 20420U 22893AJ  26037.47809028  .00000000  00000+0  00000-0 0  9997
2 20420  87.0000  15.0000 0000000   0.0000  60.0000 13.96770382    14
CTC1_L_00572004-01
1 20421U 26202OD  26037.47809028  .00000000  00000+0  00000-0 0  9996
2 20421  87.0000  22.5000 0000000   0.0000  90.0000 13.96770382    11
CTC1_L_00572005-01
1 20422U 22882XL  26037.47809028  .00000000  00000+0  00000-0 0  9997
2 20422  87.0000  30.0000 0000000   0.0000 120.0000 13.96770382    10
CTC1_L_00572006-01
1 20423U 22213GV  26037.47809028  .00000000  00000+0  00000-0 0  9996
2 20423  87.0000  37.5000 0000000   0.0000 150.0000 13.96770382    16
CTC1_L_00572007-01
1 20424U 25546ZC  26037.47809028  .00000000  00000+0  00000-0 0  9999
2 20424  87.0000  45.0000 0000000   0.0000 180.0000 13.96770382    14
CTC1_L_00572008-01
1 20425U 25358ZV  26037.47809028  .00000000  00000+0  00000-0 0  9991
2 20425  87.0000  52.5000 0000000   0.0000 210.0000 13.96770382    12
CTC1_L_00572009-01
1 20426U 26181KG  26037.47809028  .00000000  00000+0  00000-0 0  9997
2 20426  87.0000  60.0000 0000000   0.0000 240.0000 13.96770382    10
CTC1_L_00572010-01
1 20427U 25193AT  26037.47809028  .00000000  00000+0  00000-0 0  9990
2 20427  87.0000  67.5000 0000000   0.0000 270.0000 13.96770382    16
CTC1_L_00572011-01
1 20428U 24224FT  26037.47809028  .00000000  00000+0  00000-0 0  9995
2 20428  87.0000  75.0000 0000000   0.0000 300.0000 13.96770382    15
CTC1_L_00572012-01
1 20429U 24116KS  26037.47809028  .00000000  00000+0  00000-0 0  9996
2 20429  87.0000  82.5000 0000000   0.0000 330.0000 13.96770382    12
CTC1_L_00572013-01
1 20430U 25291CA  26037.47809028  .00000000  00000+0  00000-0 0  9993
2 20430  87.0000  90.0000 0000000   0.0000   0.0000 13.96770382    12
CTC1_L_00572014-01
1 20431U 26501NE  26037.47809028  .00000000  00000+0  00000-0 0  9999
2 20431  87.0000  97.5000 0000000   0.0000  30.0000 13.96770382    18
CTC1_L_00572015-01
1 20432U 24107TS  26037.47809028  .00000000  00000+0  00000-0 0  9990
2 20432  87.0000 105.0000 0000000   0.0000  60.0000 13.96770382    17
CTC1_L_00572016-01
1 20433U 26065MH  26037.47809028  .00000000  00000+0  00000-0 0  9996
2 20433  87.0000 112.5000 0000000   0.0000  90.0000 13.96770382    14
CTC1_L_00572017-01
1 20434U 25758PX  26037.47809028  .00000000  00000+0  00000-0 0  9995
2 20434  87.0000 120.0000 0000000   0.0000 120.0000 13.96770382    13
CTC1_L_00572018-01
1 20435U 25889AU  26037.47809028  .00000000  00000+0  00000-0 0  9991
2 20435  87.0000 127.5000 0000000   0.0000 150.0000 13.96770382    19
CTC1_L_00572019-01
1 20436U 25352JD  26037.47809028  .00000000  00000+0  00000-0 0  9997
2 20436  87.0000 135.0000 0000000   0.0000 180.0000 13.96770382    17
CTC1_L_00572020-01
1 20437U 25824II  26037.47809028  .00000000  00000+0  00000-0 0  9992
2 20437  87.0000 142.5000 0000000   0.0000 210.0000 13.96770382    15
CTC1_L_00572021-01
1 20438U 26694FA  26037.47809028  .00000000  00000+0  00000-0 0  9999
2 20438  87.0000 150.0000 0000000   0.0000 240.0000 13.96770382    13
CTC1_L_00572022-01
1 20439U 24409KL  26037.47809028  .00000000  00000+0  00000-0 0  9992
2 20439  87.0000 157.5000 0000000   0.0000 270.0000 13.96770382    19
CTC1_L_00572023-01
1 20440U 23281UM  26037.47809028  .00000000  00000+0  00000-0 0  9991
2 20440  87.0000 165.0000 0000000   0.0000 300.0000 13.96770382    19
CTC1_L_00572024-01
1 20441U 22346SI  26037.47809028  .00000000  00000+0  00000-0 0  9993
2 20441  87.0000 172.5000 0000000   0.0000 330.0000 13.96770382    16
CTC1_L_00572025-01
1 20442U 25639DV  26037.47809028  .00000000  00000+0  00000-0 0  9992
2 20442  87.0000 180.0000 0000000   0.0000   0.0000 13.96770382    15
CTC1_L_00572026-01
1 20443U 24788JD  26037.47809028  .00000000  00000+0  00000-0 0  9997
2 20443  87.0000 187.5000 0000000   0.0000  30.0000 13.96770382    11
CTC1_L_00572027-01
1 20444U 24751AE  26037.47809028  .00000000  00000+0  00000-0 0  9998
2 20444  87.0000 195.0000 0000000   0.0000  60.0000 13.96770382    19
CTC1_L_00572028-01
1 20445U 22116LD  26037.47809028  .00000000  00000+0  00000-0 0  9992
2 20445  87.0000 202.5000 0000000   0.0000  90.0000 13.96770382    17
CTC1_L_00572029-01
1 20446U 24483IZ  26037.47809028  .00000000  00000+0  00000-0 0  9992
2 20446  87.0000 210.0000 0000000   0.0000 120.0000 13.96770382    16
CTC1_L_00572030-01
1 20447U 25528WH  26037.47809028  .00000000  00000+0  00000-0 0  9994
2 20447  87.0000 217.5000 0000000   0.0000 150.0000 13.96770382    12
CTC1_L_00572031-01
1 20448U 23408AC  26037.47809028  .00000000  00000+0  00000-0 0  9990
2 20448  87.0000 225.0000 0000000   0.0000 180.0000 13.96770382    10
CTC1_L_00572032-01
1 20449U 22760ZU  26037.47809028  .00000000  00000+0  00000-0 0  9991
2 20449  87.0000 232.5000 0000000   0.0000 210.0000 13.96770382    18
CTC1_L_00572033-01
1 20450U 24474YW  26037.47809028  .00000000  00000+0  00000-0 0  9997
2 20450  87.0000 240.0000 0000000   0.0000 240.0000 13.96770382    17
CTC1_L_00572034-01
1 20451U 26735SZ  26037.47809028  .00000000  00000+0  00000-0 0  9990
2 20451  87.0000 247.5000 0000000   0.0000 270.0000 13.96770382    13
CTC1_L_00572035-01
1 20452U 24259PG  26037.47809028  .00000000  00000+0  00000-0 0  9990
2 20452  87.0000 255.0000 0000000   0.0000 300.0000 13.96770382    12
CTC1_L_00572036-01
1 20453U 23183CI  26037.47809028  .00000000  00000+0  00000-0 0  9996
2 20453  87.0000 262.5000 0000000   0.0000 330.0000 13.96770382    19
CTC1_L_00572037-01
1 20454U 24790JI  26037.47809028  .00000000  00000+0  00000-0 0  9992
2 20454  87.0000 270.0000 0000000   0.0000   0.0000 13.96770382    18
CTC1_L_00572038-01
1 20455U 26220UA  26037.47809028  .00000000  00000+0  00000-0 0  9993
2 20455  87.0000 277.5000 0000000   0.0000  30.0000 13.96770382    14
CTC1_L_00572039-01
1 20456U 23419RU  26037.47809028  .00000000  00000+0  00000-0 0  9991
2 20456  87.0000 285.0000 0000000   0.0000  60.0000 13.96770382    12
CTC1_L_00572040-01
1 20457U 24431VS  26037.47809028  .00000000  00000+0  00000-0 0  9997
2 20457  87.0000 292.5000 0000000   0.0000  90.0000 13.96770382    19
CTC1_L_00572041-01
1 20458U 26244SQ  26037.47809028  .00000000  00000+0  00000-0 0  9992
2 20458  87.0000 300.0000 0000000   0.0000 120.0000 13.96770382    19
CTC1_L_00572042-01
1 20459U 23419TF  26037.47809028  .00000000  00000+0  00000-0 0  9994
2 20459  87.0000 307.5000 0000000   0.0000 150.0000 13.96770382    15
CTC1_L_00572043-01
1 20460U 26708JT  26037.47809028  .00000000  00000+0  00000-0 0  9990
2 20460  87.0000 315.0000 0000000   0.0000 180.0000 13.96770382    14
CTC1_L_00572044-01
1 20461U 24873SB  26037.47809028  .00000000  00000+0  00000-0 0  9992
2 20461  87.0000 322.5000 0000000   0.0000 210.0000 13.96770382    12
CTC1_L_00572045-01
1 20462U 22774BV  26037.47809028  .00000000  00000+0  00000-0 0  9991
2 20462  87.0000 330.0000 0000000   0.0000 240.0000 13.96770382    10
CTC1_L_00572046-01
1 20463U 25805QZ  26037.47809028  .00000000  00000+0  00000-0 0  9990
2 20463  87.0000 337.5000 0000000   0.0000 270.0000 13.96770382    16
CTC1_L_00572047-01
1 20464U 26449KO  26037.47809028  .00000000  00000+0  00000-0 0  9996
2 20464  87.0000 345.0000 0000000   0.0000 300.0000 13.96770382    15
CTC1_L_00572048-01
1 20465U 22349ZI  26037.47809028  .00000000  00000+0  00000-0 0  9992
2 20465  87.0000 352.5000 0000000   0.0000 330.0000 13.96770382    12
